STARLINK-32485          
1 62143U 24224E   24363.50002315 -.01535010  00000+0 -31200-1 0  9997
2 62143  42.9996 110.4030 0001068 274.6763 214.7193 15.48488660  5233
STARLINK-32388          
1 62144U 24224F   24363.50002315 -.01528325  00000+0 -46966-1 0  9994
2 62144  43.0004 110.6683 0001388 280.0939  99.7896 15.36272546  5662
STARLINK-32374          
1 62145U 24224G   24362.31594128  .00001011  00000+0  23050-4 0  9998
2 62145  42.9990 117.3047 0001695 263.6315  96.4352 15.50579753  5486
STARLINK-32384          
1 62146U 24224H   24363.16667824 -.01492425  00000+0 -38502-1 0  9998
2 62146  43.0003 112.4454 0001635 273.4535 113.3978 15.41484510  5613
STARLINK-32295          
1 62147U 24224J   24363.02416936  .00000330  00000+0  11446-4 0  9998
2 62147  43.0003 113.1569 0001267 269.9047  90.1668 15.50574099  5483
STARLINK-32479          
1 62148U 24224K   24363.50002315 -.01529652  00000+0 -43222-1 0  9994
2 62148  43.0002 110.5537 0001410 284.8938 141.7004 15.38836228  5606
STARLINK-32468          
1 62149U 24224L   24363.50002315 -.01532673  00000+0 -35934-1 0  9993
2 62149  42.9996 110.4245 0001200 286.6382 193.3961 15.44384535  5502
STARLINK-32629          
1 62150U 24224M   24363.50002315 -.01531665  00000+0 -39243-1 0  9992
2 62150  42.9998 110.4676 0001294 284.9496 177.1258 15.41773496  5665
STARLINK-32644          
1 62151U 24224N   24363.47076155  .00001411  00000+0  29872-4 0  9990
2 62151  43.0031 110.4876 0001679 272.3131  87.7537 15.50580509  5669
STARLINK-32623          
1 62152U 24224P   24363.16667824 -.01493313  00000+0 -37690-1 0  9999
2 62152  43.0000 112.4003 0001570 275.5109 129.1861 15.42136600  5559
STARLINK-32639          
1 62153U 24224Q   24363.34473211 -.00165538  00000+0 -29634-2 0  9999
2 62153  42.9996 111.2610 0002228 248.6933 111.3689 15.49733666  5485
STARLINK-32625          
1 62154U 24224R   24362.76410292  .00001682  00000+0  34488-4 0  9997
2 62154  43.0012 114.6430 0001554 264.3715  95.6968 15.50578943  5445
STARLINK-32635          
1 62155U 24224S   24363.50002315 -.01527797  00000+0 -47595-1 0  9997
2 62155  43.0004 110.6308 0001343 281.5405 112.6318 15.35851185  5501
STARLINK-32532          
1 62156U 24224T   24363.50002315 -.01531319  00000+0 -38380-1 0  9995
2 62156  42.9998 110.4226 0001187 286.5185 193.2084 15.42424917  5507
STARLINK-32503          
1 62157U 24224U   24363.50002315 -.01527103  00000+0 -49767-1 0  9993
2 62157  43.0005 110.6792 0001390 279.4296  94.5830 15.34452137  5237
STARLINK-32508          
1 62158U 24224V   24363.50002315 -.01531366  00000+0 -36307-1 0  9996
2 62158  42.9998 110.3803 0001174 286.4939 210.3900 15.44056102  5665
STARLINK-32524          
1 62159U 24224W   24363.50002315 -.01531156  00000+0 -37954-1 0  9993
2 62159  42.9997 110.4013 0001185 285.6494 202.7265 15.42750622  5506
STARLINK-32484          
1 62160U 24224X   24363.01970707  .00000875  00000+0  20746-4 0  9990
2 62160  43.0027 113.1215 0001758 277.4941  82.5720 15.50576961  5590
STARLINK-32497          
1 62161U 24224Y   24363.50002315 -.01530337  00000+0 -42388-1 0  9993
2 62161  43.0000 110.4711 0001286 285.5719 173.6310 15.39440408  5660
STARLINK-32526          
1 62162U 24224Z   24363.16667824 -.01489758  00000+0 -42905-1 0  9993
2 62162  43.0004 112.4629 0001593 273.5916 104.4012 15.38171100  5617
STARLINK-32523          
1 62165U 24225C   24363.26419996  .00001169  00000+0  34571-4 0  9999
2 62165  69.9989 190.8096 0003243 269.1413  90.9395 15.38320404  4349
STARLINK-32551          
1 62166U 24225D   24362.97158810  .00005025  00000+0  13626-3 0  9994
2 62166  69.9987 191.7977 0003173 277.6552  82.4267 15.38323090  4298
STARLINK-32506          
1 62167U 24225E   24362.95530307  .00012382  00000+0  32942-3 0  9994
2 62167  69.9984 191.7395 0003669 267.6112  92.4648 15.38373130  4295
STARLINK-32562          
1 62168U 24225F   24363.50002315  .00010005  00000+0  26760-3 0  9991
2 62168  69.9984 190.0734 0003366 265.9576  49.7052 15.38302786  4376
STARLINK-32558          
1 62169U 24225G   24363.51617351  .00015715  00000+0  41755-3 0  9999
2 62169  69.9997 190.0827 0002886 267.2745  92.8104 15.38327283  4391
STARLINK-32538          
1 62170U 24225H   24363.27235946  .00014950  00000+0  39822-3 0  9992
2 62170  69.9992 190.8375 0002294 264.7896  95.3021 15.38267676  4357
STARLINK-32257          
1 62171U 24225J   24362.96345932  .00002274  00000+0  63731-4 0  9998
2 62171  69.9987 191.7672 0003001 267.1076  92.9760 15.38321829  4305
STARLINK-32407          
1 62172U 24225K   24363.16667824 -.00055799  00000+0 -14784-2 0  9993
2 62172  69.9982 190.9155 0003208 276.6717  38.4947 15.38348198  4337
STARLINK-32575          
1 62173U 24225L   24363.16667824 -.00038750  00000+0 -10232-2 0  9996
2 62173  69.9982 190.9406 0003197 272.8180  20.3392 15.38350118  4335
STARLINK-32552          
1 62174U 24225M   24362.96744345 -.00002190  00000+0 -54136-4 0  9990
2 62174  69.9985 191.7824 0003485 267.6459  92.4322 15.38303147  4303
STARLINK-32534          
1 62175U 24225N   24363.27630429  .00004047  00000+0  11041-3 0  9991
2 62175  69.9986 190.8516 0003392 266.7629  93.3162 15.38340803  4356
STARLINK-32516          
1 62176U 24225P   24362.94323127  .00000451  00000+0  15632-4 0  9995
2 62176  69.9987 191.6958 0003064 269.3167  90.7662 15.38317168  4296
STARLINK-32542          
1 62177U 24225Q   24363.00001157  .00005677  00000+0  15354-3 0  9995
2 62177  69.9984 191.4394 0003330 273.0042 131.4552 15.38299298  4302
STARLINK-32600          
1 62178U 24225R   24363.50002315  .00023647  00000+0  62625-3 0  9998
2 62178  69.9983 189.9952 0003312 262.3500 121.3102 15.38302992  4387
STARLINK-32584          
1 62179U 24225S   24363.50002315 -.01031084  00000+0 -12765-1 0  9994
2 62179  69.9992 188.3594 0003761 272.5534  93.2786 15.62646247  4422
STARLINK-32587          
1 62180U 24225T   24363.50002315 -.01168315  00000+0 -13746-1 0  9994
2 62180  69.9993 187.9858 0003592 271.4076  52.6090 15.63837277  4438
STARLINK-32602          
1 62181U 24225U   24363.52014633  .00001936  00000+0  54794-4 0  9996
2 62181  69.9989 190.0964 0003664 272.8875  87.1885 15.38321802  4382
STARLINK-32565          
1 62182U 24225V   24362.95894423 -.00003805  00000+0 -96757-4 0  9990
2 62182  69.9984 191.7505 0003548 270.0712  90.0061 15.38314124  4296
STARLINK-32589          
1 62183U 24225W   24362.70100760 -.00011179  00000+0 -29160-3 0  9994
2 62183  69.9989 192.4563 0003091 270.2894  89.7931 15.38336937  4264
STARLINK-32581          
1 62184U 24225X   24363.50002315  .00028164  00000+0  74498-3 0  9995
2 62184  69.9983 190.0077 0003584 265.6696 106.9986 15.38292205  4382
STARLINK-32686          
1 62192U 24229A   24363.50002315 -.01489129  00000+0 -30007-1 0  9999
2 62192  42.9989 217.4039 0001793 268.3197  84.9088 15.48637958  4945
STARLINK-32688          
1 62193U 24229B   24363.50002315  .00020951  00000+0  36219-3 0  9994
2 62193  42.9985 217.3940 0001634 260.1051  97.1131 15.50563288  4879
STARLINK-32684          
1 62194U 24229C   24363.50002315  .00024923  00000+0  42955-3 0  9992
2 62194  42.9985 217.3891 0001645 261.9037  97.2312 15.50561556  4991
STARLINK-32672          
1 62195U 24229D   24362.91667824 -.00017710  00000+0 -29663-3 0  9998
2 62195  42.9987 220.7985 0001484 261.0627  79.7906 15.50588039  4790
STARLINK-32682          
1 62196U 24229E   24363.50002315 -.00064450  00000+0 -32057-3 0  9997
2 62196  42.9980 215.2890 0001777 256.8485 225.1765 15.81006531  4850
STARLINK-32663          
1 62197U 24229F   24362.91667824  .00072767  00000+0  12365-2 0  9991
2 62197  42.9988 220.7895 0001093 270.1784  74.4713 15.50537742  4832
STARLINK-32640          
1 62198U 24229G   24362.91667824 -.00006435  00000+0 -10393-3 0  9993
2 62198  42.9987 220.7786 0001500 259.5792  88.9385 15.50584066  4795
STARLINK-32653          
1 62199U 24229H   24363.16667824 -.01227774  00000+0 -17058-1 0  9997
2 62199  42.9991 218.2629 0001855 272.9052  95.6840 15.59118790  4966
STARLINK-32647          
1 62200U 24229J   24362.91667824  .00001486  00000+0  31139-4 0  9998
2 62200  42.9987 220.7738 0001488 259.8377  90.5963 15.50580598  4835
STARLINK-32667          
1 62201U 24229K   24363.50002315 -.01492841  00000+0 -28439-1 0  9991
2 62201  42.9989 217.3544 0001664 255.4050 117.0779 15.50224001  4835
STARLINK-32655          
1 62202U 24229L   24363.50002315 -.00037254  00000+0 -63143-3 0  9997
2 62202  42.9986 217.3498 0001021 258.8967 115.5307 15.50614907  4830
STARLINK-32665          
1 62203U 24229M   24362.91667824 -.00013588  00000+0 -22611-3 0  9993
2 62203  42.9987 220.7588 0001500 259.9172  96.2643 15.50588599  4905
STARLINK-32664          
1 62204U 24229N   24363.50002315 -.00012543  00000+0 -20816-3 0  9993
2 62204  42.9986 217.3395 0001318 265.2181 113.0500 15.50599982  4830
STARLINK-32660          
1 62205U 24229P   24362.91667824 -.01400744  00000+0 -21920-1 0  9990
2 62205  42.9991 220.2974 0001403 276.2385 266.8346 15.55890593  4793
STARLINK-32448          
1 62206U 24229Q   24363.50002315 -.01374299  00000+0 -25855-1 0  9991
2 62206  42.9988 217.3242 0001803 264.7164 119.3111 15.50808438  4835
STARLINK-32430          
1 62207U 24229R   24363.16667824 -.01523682  00000+0 -29045-1 0  9993
2 62207  42.9990 219.2805 0001529 265.5681  53.4949 15.50266173  4823
STARLINK-32675          
1 62208U 24229S   24362.91667824  .00002174  00000+0  42864-4 0  9998
2 62208  42.9986 220.7339 0001508 259.4517 106.3103 15.50582675  4902
STARLINK-32671          
1 62209U 24229T   24363.50002315  .00020764  00000+0  35906-3 0  9996
2 62209  42.9986 217.3101 0001828 264.1898 125.6202 15.50559625  5007
STARLINK-32670          
1 62210U 24229U   24362.91667824  .00022319  00000+0  38525-3 0  9992
2 62210  42.9987 220.7295 0001508 258.9044 108.7742 15.50573333  4799
